STARLINK-37624          
1 69833U 26154Q   26203.64429252  .00224240  00000+0  11078-2 0  9996
2 69833  53.1574 255.4959 0001066  74.2339 285.8801 15.80922836  3993
STARLINK-37769          
1 69834U 26154R   26203.58032266  .00159159  00000+0  79414-3 0  9990
2 69834  53.1575 255.8072 0000857 104.7261 255.3857 15.80900092  3987
STARLINK-37247          
1 69835U 26154S   26203.57957083  .00153564  00000+0  76654-3 0  9990
2 69835  53.1578 255.8017 0001194 129.3404 230.7724 15.80908813  3986
STARLINK-37569          
1 69836U 26154T   26203.57881564  .00196737  00000+0  97488-3 0  9998
2 69836  53.1580 255.7975 0002013 166.0747 194.0331 15.80936484  3982
STARLINK-37587          
1 69837U 26154U   26203.57807226  .00227983  00000+0  11258-2 0  9990
2 69837  53.1573 255.7922 0001089  98.9260 261.1886 15.80923232  3980
STARLINK-37590          
1 69838U 26154V   26203.57732220  .00127260  00000+0  63873-3 0  9990
2 69838  53.1576 255.7876 0001168 130.6530 229.4595 15.80876706  3981
STARLINK-37589          
1 69839U 26154W   26203.57657489  .00162921  00000+0  81243-3 0  9998
2 69839  53.1576 255.7820 0001422  29.3033 330.8070 15.80901362  3988
STARLINK-37487          
1 69840U 26154X   26203.85199362  .00283587  00000+0  13890-2 0  9996
2 69840  53.1583 253.9198 0001649  78.5664 281.5544 15.80944959  4037
STARLINK-37433          
1 69841U 26154Y   26203.59922516  .00254938  00000+0  12589-2 0  9995
2 69841  53.1585 255.1883 0001544  49.2052 310.9104 15.80846950  3990
STARLINK-37588          
1 69842U 26154Z   26203.59620526  .00113037  00000+0  56838-3 0  9992
2 69842  53.1597 255.1679 0001187  46.8686 313.2436 15.80887763  3997
STARLINK-37579          
1 69843U 26154AA  26203.84936323  .00291178  00000+0  14248-2 0  9997
2 69843  53.1584 253.9018 0001573  65.5528 294.5659 15.80945619  4038
STARLINK-37584          
1 69844U 26154AB  26203.84869409  .00416281  00000+0  20017-2 0  9993
2 69844  53.1587 253.8977 0001574  76.3166 283.8032 15.80991759  4036
STARLINK-37606          
1 69845U 26154AC  26203.59490677  .00146138  00000+0  73078-3 0  9990
2 69845  53.1591 255.1576 0002084  23.2617 336.8499 15.80892867  3991
STARLINK-37603          
1 69846U 26154AD  26203.84719970  .00410800  00000+0  19769-2 0  9995
2 69846  53.1587 253.8863 0001477  65.7388 294.3789 15.80988116  4031
STARLINK-37595          
1 69847U 26154AE  26203.59340273  .00209557  00000+0  10376-2 0  9994
2 69847  53.1592 255.1468 0000898 103.9641 256.1481 15.80917141  3996
QIANFAN-219             
1 69848U 26155A   26203.87455020  .00000165  00000+0  65688-4 0  9996
2 69848  89.0061  60.0725 0031126 195.8506 164.1715 14.23742350  2477
QIANFAN-220             
1 69849U 26155B   26203.84810219  .00000174  00000+0  78301-4 0  9995
2 69849  89.0061  60.0869 0030187 196.5294 163.4914 14.17599204  2468
QIANFAN-221             
1 69850U 26155C   26203.86858619  .00000224  00000+0  86200-4 0  9998
2 69850  89.0061  60.0716 0031194 197.3421 162.6710 14.26649654  2472
QIANFAN-222             
1 69851U 26155D   26203.83909790  .00000206  00000+0  92318-4 0  9990
2 69851  89.0062  60.0858 0029370 197.6911 162.3258 14.18563726  2460
QIANFAN-223             
1 69852U 26155E   26203.83347043  .00000189  00000+0  84107-4 0  9995
2 69852  89.0064  60.0853 0029256 197.1762 162.8441 14.18586233  2467
QIANFAN-224             
1 69853U 26155F   26203.89833363  .00000203  00000+0  87820-4 0  9999
2 69853  89.0049  60.0743 0030297 197.3476 162.6682 14.20220731  2477
QIANFAN-225             
1 69854U 26155G   26203.89713342  .00000172  00000+0  74774-4 0  9993
2 69854  89.0061  60.0758 0029694 196.5612 163.4611 14.19332919  2471
QIANFAN-226             
1 69855U 26155H   26203.89500922  .00000202  00000+0  88514-4 0  9993
2 69855  89.0060  60.0754 0030449 196.9408 163.0768 14.19637243  2471
QIANFAN-227             
1 69856U 26155J   26203.88893937  .00000187  00000+0  80873-4 0  9996
2 69856  89.0061  60.0747 0030391 196.4865 163.5339 14.19929024  2473
QIANFAN-228             
1 69857U 26155K   26203.88680477  .00000126  00000+0  52056-4 0  9995
2 69857  89.0062  60.0744 0030203 196.9324 163.0862 14.20222714  2479
QIANFAN-229             
1 69858U 26155L   26203.87808073  .00000089  00000+0  33554-4 0  9999
2 69858  89.0060  60.0729 0030011 196.3031 163.7197 14.21820566  2475
QIANFAN-230             
1 69859U 26155M   26203.91500450  .00000167  00000+0  74455-4 0  9995
2 69859  89.0056  60.0777 0029430 197.1631 162.8566 14.17864600  2474
QIANFAN-231             
1 69860U 26155N   26203.87737403  .00000153  00000+0  60289-4 0  9997
2 69860  89.0062  60.0732 0031293 195.8920 164.1294 14.23685171  2474
QIANFAN-232             
1 69861U 26155P   26203.87467689  .00000193  00000+0  77708-4 0  9992
2 69861  89.0060  60.0723 0030478 197.2817 162.7341 14.23942910  2472
QIANFAN-233             
1 69862U 26155Q   26203.87273969  .00000155  00000+0  61294-4 0  9990
2 69862  89.0062  60.0723 0030442 196.8724 163.1459 14.23733765  2479
