OBJECT_NAME,OBJECT_ID,EPOCH,MEAN_MOTION,ECCENTRICITY,INCLINATION,RA_OF_ASC_NODE,ARG_OF_PERICENTER,MEAN_ANOMALY,EPHEMERIS_TYPE,CLASSIFICATION_TYPE,NORAD_CAT_ID,ELEMENT_SET_NO,REV_AT_EPOCH,BSTAR,MEAN_MOTION_DOT,MEAN_MOTION_DDOT
STARLINK-37624,2026-154Q,2026-07-22T15:27:46.873728,15.80922836,.00010663,53.1574,255.4959,74.2339,285.8801,0,U,69833,999,399,.1107844E-2,.22424E-2,0
STARLINK-37769,2026-154R,2026-07-22T13:55:39.877824,15.80900092,.00008579,53.1575,255.8072,104.7261,255.3857,0,U,69834,999,398,.79414471E-3,.159159E-2,0
STARLINK-37247,2026-154S,2026-07-22T13:54:34.919712,15.80908813,.00011947,53.1578,255.8017,129.3404,230.7724,0,U,69835,999,398,.76654395E-3,.153564E-2,0
STARLINK-37569,2026-154T,2026-07-22T13:53:29.671296,15.80936484,.00020138,53.1580,255.7975,166.0747,194.0331,0,U,69836,999,398,.97487961E-3,.196737E-2,0
STARLINK-37587,2026-154U,2026-07-22T13:52:25.443264,15.80923232,.00010899,53.1573,255.7922,98.9260,261.1886,0,U,69837,999,398,.112577E-2,.227983E-2,0
STARLINK-37590,2026-154V,2026-07-22T13:51:20.638080,15.80876706,.00011681,53.1576,255.7876,130.6530,229.4595,0,U,69838,999,398,.63872979E-3,.12726E-2,0
STARLINK-37589,2026-154W,2026-07-22T13:50:16.070496,15.80901362,.00014221,53.1576,255.7820,29.3033,330.8070,0,U,69839,999,398,.81242746E-3,.162921E-2,0
STARLINK-37487,2026-154X,2026-07-22T20:26:52.248768,15.80944959,.00016496,53.1583,253.9198,78.5664,281.5544,0,U,69840,999,403,.13890497E-2,.283587E-2,0
STARLINK-37433,2026-154Y,2026-07-22T14:22:53.053824,15.80846950,.00015447,53.1585,255.1883,49.2052,310.9104,0,U,69841,999,399,.12589149E-2,.254938E-2,0
STARLINK-37588,2026-154Z,2026-07-22T14:18:32.134464,15.80887763,.00011873,53.1597,255.1679,46.8686,313.2436,0,U,69842,999,399,.56838049E-3,.113037E-2,0
STARLINK-37579,2026-154AA,2026-07-22T20:23:04.983072,15.80945619,.00015736,53.1584,253.9018,65.5528,294.5659,0,U,69843,999,403,.14248355E-2,.291178E-2,0
STARLINK-37584,2026-154AB,2026-07-22T20:22:07.169376,15.80991759,.00015747,53.1587,253.8977,76.3166,283.8032,0,U,69844,999,403,.20016646E-2,.416281E-2,0
STARLINK-37606,2026-154AC,2026-07-22T14:16:39.944928,15.80892867,.00020842,53.1591,255.1576,23.2617,336.8499,0,U,69845,999,399,.730778E-3,.146138E-2,0
STARLINK-37603,2026-154AD,2026-07-22T20:19:58.054080,15.80988116,.00014777,53.1587,253.8863,65.7388,294.3789,0,U,69846,999,403,.19769499E-2,.4108E-2,0
STARLINK-37595,2026-154AE,2026-07-22T14:14:29.995872,15.80917141,.0000898,53.1592,255.1468,103.9641,256.1481,0,U,69847,999,399,.10375781E-2,.209557E-2,0
QIANFAN-219,2026-155A,2026-07-22T20:59:21.137280,14.23742350,.00311263,89.0061,60.0725,195.8506,164.1715,0,U,69848,999,247,.65687679E-4,.165E-5,0
QIANFAN-220,2026-155B,2026-07-22T20:21:16.029216,14.17599204,.00301875,89.0061,60.0869,196.5294,163.4914,0,U,69849,999,246,.78301008E-4,.174E-5,0
QIANFAN-221,2026-155C,2026-07-22T20:50:45.846816,14.26649654,.00311941,89.0061,60.0716,197.3421,162.6710,0,U,69850,999,247,.86200298E-4,.224E-5,0
QIANFAN-222,2026-155D,2026-07-22T20:08:18.058560,14.18563726,.00293701,89.0062,60.0858,197.6911,162.3258,0,U,69851,999,246,.92317766E-4,.206E-5,0
QIANFAN-223,2026-155E,2026-07-22T20:00:11.845152,14.18586233,.00292568,89.0064,60.0853,197.1762,162.8441,0,U,69852,999,246,.84106582E-4,.189E-5,0
QIANFAN-224,2026-155F,2026-07-22T21:33:36.025632,14.20220731,.00302971,89.0049,60.0743,197.3476,162.6682,0,U,69853,999,247,.87819535E-4,.203E-5,0
QIANFAN-225,2026-155G,2026-07-22T21:31:52.327488,14.19332919,.00296946,89.0061,60.0758,196.5612,163.4611,0,U,69854,999,247,.74773514E-4,.172E-5,0
QIANFAN-226,2026-155H,2026-07-22T21:28:48.796608,14.19637243,.0030449,89.0060,60.0754,196.9408,163.0768,0,U,69855,999,247,.88513559E-4,.202E-5,0
QIANFAN-227,2026-155J,2026-07-22T21:20:04.361568,14.19929024,.0030391,89.0061,60.0747,196.4865,163.5339,0,U,69856,999,247,.80872907E-4,.187E-5,0
QIANFAN-228,2026-155K,2026-07-22T21:16:59.932128,14.20222714,.00302031,89.0062,60.0744,196.9324,163.0862,0,U,69857,999,247,.52055644E-4,.126E-5,0
QIANFAN-229,2026-155L,2026-07-22T21:04:26.175072,14.21820566,.00300117,89.0060,60.0729,196.3031,163.7197,0,U,69858,999,247,.33554481E-4,.89E-6,0
QIANFAN-230,2026-155M,2026-07-22T21:57:36.388800,14.17864600,.002943,89.0056,60.0777,197.1631,162.8566,0,U,69859,999,247,.7445507E-4,.167E-5,0
QIANFAN-231,2026-155N,2026-07-22T21:03:25.116192,14.23685171,.0031293,89.0062,60.0732,195.8920,164.1294,0,U,69860,999,247,.60288955E-4,.153E-5,0
QIANFAN-232,2026-155P,2026-07-22T20:59:32.083296,14.23942910,.00304781,89.0060,60.0723,197.2817,162.7341,0,U,69861,999,247,.77707725E-4,.193E-5,0
QIANFAN-233,2026-155Q,2026-07-22T20:56:44.709216,14.23733765,.00304426,89.0062,60.0723,196.8724,163.1459,0,U,69862,999,247,.61293878E-4,.155E-5,0
